{
  "type": "FeatureCollection",
  "features": [
    {
      "type": "Feature",
      "properties": {
        "norad_id": 29985,
        "name": "FENGYUN 1C DEB",
        "group": "fengyun-1c-debris",
        "lat": 51.96383302508612,
        "lon": -159.47958967258634,
        "alt_km": 843.0105003358858,
        "timestamp": "2025-12-20T09:36:01.918359+00:00",
        "meta_object_name": "FENGYUN 1C DEB",
        "meta_object_id": "1999-025LK",
        "meta_epoch": "2025-12-19T23:04:19.350048",
        "meta_mean_motion": 14.10325337,
        "meta_eccentricity": 0.00284964,
        "meta_inclination": 98.7099,
        "meta_ra_of_asc_node": 8.7951,
        "meta_arg_of_pericenter": 188.2989,
        "meta_mean_anomaly": 233.0445,
        "meta_ephemeris_type": 0,
        "meta_classification_type": "U",
        "meta_norad_cat_id": 29985,
        "meta_element_set_no": 999,
        "meta_rev_at_epoch": 97450,
        "meta_bstar": 1.5750039e-05,
        "meta_mean_motion_dot": -1.4e-07,
        "meta_mean_motion_ddot": 0,
        "tle_line1": "1 29985U 99025LK  25353.96133507 -.00000014  00000+0  15750-4 0  9997",
        "tle_line2": "2 29985  98.7099   8.7951 0028496 188.2989 233.0445 14.10325337974506"
      },
      "geometry": {
        "type": "Point",
        "coordinates": [
          -159.47958967258634,
          51.96383302508612
        ]
      }
    },
    {
      "type": "Feature",
      "properties": {
        "norad_id": 29986,
        "name": "FENGYUN 1C DEB",
        "group": "fengyun-1c-debris",
        "lat": -77.93845661649965,
        "lon": -168.15459130812923,
        "alt_km": 796.4163626853724,
        "timestamp": "2025-12-20T09:36:01.918370+00:00",
        "meta_object_name": "FENGYUN 1C DEB",
        "meta_object_id": "1999-025LL",
        "meta_epoch": "2025-12-19T03:56:38.662368",
        "meta_mean_motion": 14.29265102,
        "meta_eccentricity": 0.00227699,
        "meta_inclination": 99.3984,
        "meta_ra_of_asc_node": 61.3297,
        "meta_arg_of_pericenter": 338.0886,
        "meta_mean_anomaly": 50.0354,
        "meta_ephemeris_type": 0,
        "meta_classification_type": "U",
        "meta_norad_cat_id": 29986,
        "meta_element_set_no": 999,
        "meta_rev_at_epoch": 97599,
        "meta_bstar": 0.0011906503,
        "meta_mean_motion_dot": 2.986e-05,
        "meta_mean_motion_ddot": 0,
        "tle_line1": "1 29986U 99025LL  25353.16433637  .00002986  00000+0  11907-2 0  9994",
        "tle_line2": "2 29986  99.3984  61.3297 0022769 338.0886  50.0354 14.29265102975996"
      },
      "geometry": {
        "type": "Point",
        "coordinates": [
          -168.15459130812923,
          -77.93845661649965
        ]
      }
    },
    {
      "type": "Feature",
      "properties": {
        "norad_id": 29987,
        "name": "FENGYUN 1C DEB",
        "group": "fengyun-1c-debris",
        "lat": 6.76843454673835,
        "lon": 67.42363626138263,
        "alt_km": 800.7643878233921,
        "timestamp": "2025-12-20T09:36:01.918380+00:00",
        "meta_object_name": "FENGYUN 1C DEB",
        "meta_object_id": "1999-025LM",
        "meta_epoch": "2025-12-19T15:57:40.083264",
        "meta_mean_motion": 14.14600272,
        "meta_eccentricity": 0.00789139,
        "meta_inclination": 98.8983,
        "meta_ra_of_asc_node": 245.6259,
        "meta_arg_of_pericenter": 213.4728,
        "meta_mean_anomaly": 179.2949,
        "meta_ephemeris_type": 0,
        "meta_classification_type": "U",
        "meta_norad_cat_id": 29987,
        "meta_element_set_no": 999,
        "meta_rev_at_epoch": 96471,
        "meta_bstar": 0.0015714485,
        "meta_mean_motion_dot": 3.067e-05,
        "meta_mean_motion_ddot": 0,
        "tle_line1": "1 29987U 99025LM  25353.66504726  .00003067  00000+0  15714-2 0  9999",
        "tle_line2": "2 29987  98.8983 245.6259 0078913 213.4728 179.2949 14.14600272964715"
      },
      "geometry": {
        "type": "Point",
        "coordinates": [
          67.42363626138263,
          6.76843454673835
        ]
      }
    },
    {
      "type": "Feature",
      "properties": {
        "norad_id": 29988,
        "name": "FENGYUN 1C DEB",
        "group": "fengyun-1c-debris",
        "lat": 73.1245815783923,
        "lon": -51.14548882690895,
        "alt_km": 744.7118773136235,
        "timestamp": "2025-12-20T09:36:01.918391+00:00",
        "meta_object_name": "FENGYUN 1C DEB",
        "meta_object_id": "1999-025LN",
        "meta_epoch": "2025-12-19T20:25:28.927200",
        "meta_mean_motion": 14.5046355,
        "meta_eccentricity": 0.01201851,
        "meta_inclination": 98.6958,
        "meta_ra_of_asc_node": 97.9885,
        "meta_arg_of_pericenter": 356.6173,
        "meta_mean_anomaly": 121.5684,
        "meta_ephemeris_type": 0,
        "meta_classification_type": "U",
        "meta_norad_cat_id": 29988,
        "meta_element_set_no": 999,
        "meta_rev_at_epoch": 98170,
        "meta_bstar": 0.00096711901,
        "meta_mean_motion_dot": 4.099e-05,
        "meta_mean_motion_ddot": 0,
        "tle_line1": "1 29988U 99025LN  25353.85102925  .00004099  00000+0  96712-3 0  9990",
        "tle_line2": "2 29988  98.6958  97.9885 0120185 356.6173 121.5684 14.50463550981702"
      },
      "geometry": {
        "type": "Point",
        "coordinates": [
          -51.14548882690895,
          73.1245815783923
        ]
      }
    },
    {
      "type": "Feature",
      "properties": {
        "norad_id": 29989,
        "name": "FENGYUN 1C DEB",
        "group": "fengyun-1c-debris",
        "lat": 32.33959020877174,
        "lon": 158.52600785169224,
        "alt_km": 757.5096100191895,
        "timestamp": "2025-12-20T09:36:01.918402+00:00",
        "meta_object_name": "FENGYUN 1C DEB",
        "meta_object_id": "1999-025LP",
        "meta_epoch": "2025-12-19T16:46:46.472736",
        "meta_mean_motion": 14.15823091,
        "meta_eccentricity": 0.01235838,
        "meta_inclination": 98.6683,
        "meta_ra_of_asc_node": 332.3014,
        "meta_arg_of_pericenter": 175.6808,
        "meta_mean_anomaly": 1.775,
        "meta_ephemeris_type": 0,
        "meta_classification_type": "U",
        "meta_norad_cat_id": 29989,
        "meta_element_set_no": 999,
        "meta_rev_at_epoch": 97709,
        "meta_bstar": 9.3217576e-05,
        "meta_mean_motion_dot": 1.55e-06,
        "meta_mean_motion_ddot": 0,
        "tle_line1": "1 29989U 99025LP  25353.69914899  .00000155  00000+0  93218-4 0  9992",
        "tle_line2": "2 29989  98.6683 332.3014 0123583 175.6808   1.7750 14.15823091977098"
      },
      "geometry": {
        "type": "Point",
        "coordinates": [
          158.52600785169224,
          32.33959020877174
        ]
      }
    },
    {
      "type": "Feature",
      "properties": {
        "norad_id": 29992,
        "name": "FENGYUN 1C DEB",
        "group": "fengyun-1c-debris",
        "lat": -73.56251334400612,
        "lon": 137.94006090706117,
        "alt_km": 882.7217600591966,
        "timestamp": "2025-12-20T09:36:01.918412+00:00",
        "meta_object_name": "FENGYUN 1C DEB",
        "meta_object_id": "1999-025LS",
        "meta_epoch": "2025-12-19T06:57:27.389376",
        "meta_mean_motion": 14.1161385,
        "meta_eccentricity": 0.008919,
        "meta_inclination": 98.7301,
        "meta_ra_of_asc_node": 348.2473,
        "meta_arg_of_pericenter": 149.1141,
        "meta_mean_anomaly": 227.637,
        "meta_ephemeris_type": 0,
        "meta_classification_type": "U",
        "meta_norad_cat_id": 29992,
        "meta_element_set_no": 999,
        "meta_rev_at_epoch": 97480,
        "meta_bstar": 9.1881e-05,
        "meta_mean_motion_dot": 1.31e-06,
        "meta_mean_motion_ddot": 0,
        "tle_line1": "1 29992U 99025LS  25353.28990034  .00000131  00000+0  91881-4 0  9994",
        "tle_line2": "2 29992  98.7301 348.2473 0089190 149.1141 227.6370 14.11613850974805"
      },
      "geometry": {
        "type": "Point",
        "coordinates": [
          137.94006090706117,
          -73.56251334400612
        ]
      }
    },
    {
      "type": "Feature",
      "properties": {
        "norad_id": 29993,
        "name": "FENGYUN 1C DEB",
        "group": "fengyun-1c-debris",
        "lat": 56.98630370259959,
        "lon": -135.2833580741407,
        "alt_km": 887.5707227030061,
        "timestamp": "2025-12-20T09:36:01.918423+00:00",
        "meta_object_name": "FENGYUN 1C DEB",
        "meta_object_id": "1999-025LT",
        "meta_epoch": "2025-12-19T09:08:49.676064",
        "meta_mean_motion": 14.08150795,
        "meta_eccentricity": 0.0038283,
        "meta_inclination": 98.7924,
        "meta_ra_of_asc_node": 29.9438,
        "meta_arg_of_pericenter": 295.5602,
        "meta_mean_anomaly": 64.1612,
        "meta_ephemeris_type": 0,
        "meta_classification_type": "U",
        "meta_norad_cat_id": 29993,
        "meta_element_set_no": 999,
        "meta_rev_at_epoch": 97263,
        "meta_bstar": 0.00011877,
        "meta_mean_motion_dot": 1.6e-06,
        "meta_mean_motion_ddot": 0,
        "tle_line1": "1 29993U 99025LT  25353.38113051  .00000160  00000+0  11877-3 0  9990",
        "tle_line2": "2 29993  98.7924  29.9438 0038283 295.5602  64.1612 14.08150795972638"
      },
      "geometry": {
        "type": "Point",
        "coordinates": [
          -135.2833580741407,
          56.98630370259959
        ]
      }
    }
  ]
}